ONEWEB-0108             
1 48076U 21025AL  24094.79237626 -.00000291  00000+0 -83188-3 0  9990
2 48076  87.8900 120.3563 0002088  85.9305 274.2063 13.13471105148055
ONEWEB-0176             
1 48210U 21031A   24094.91850372  .00000007  00000+0 -15588-4 0  9994
2 48210  87.8899  89.7453 0001892  87.6849 272.4498 13.14504836142653
ONEWEB-0184             
1 48211U 21031B   24094.96765118  .00000283  00000+0  72811-3 0  9999
2 48211  87.8892  89.7217 0001073 114.4889 245.6352 13.14503165142632
ONEWEB-0179             
1 48212U 21031C   24094.93750112 -.00000535  00000+0 -14770-2 0  9996
2 48212  87.8897  89.7278 0002043  90.8778 269.2586 13.14504186142676
ONEWEB-0180             
1 48213U 21031D   24094.74245528  .00000255  00000+0  65256-3 0  9999
2 48213  87.8895  89.7670 0002066  94.9512 265.1854 13.14504856142539
ONEWEB-0218             
1 48214U 21031E   24094.91690842  .00000030  00000+0  45164-4 0  9990
2 48214  87.8895  89.7341 0001399 124.6650 235.4612 13.14502245142719
ONEWEB-0209             
1 48215U 21031F   24094.90580624  .00000756  00000+0  20038-2 0  9992
2 48215  87.8898  89.7684 0002111  91.5085 268.6287 13.14505817142714
